{"fetched_at":"2026-03-29T16:36:15Z","count":15609,"tles":[{"name":"STARLINK-33687","line1":"1 63485U 25070AB  26087.87640873  .00025491  00000+0  93215-3 0  9999","line2":"2 63485  43.0033 151.1350 0001178 290.9311  69.1415 15.27597609 55916","category":"Starlink"}]}